[{"OBJECT_NAME":"GEESAT-1 09","OBJECT_ID":"2022-058J","EPOCH":"2026-03-09T22:14:58.178400","MEAN_MOTION":14.996745,"ECCENTRICITY":0.0007116,"INCLINATION":49.9974,"RA_OF_ASC_NODE":293.7726,"ARG_OF_PERICENTER":137.6611,"MEAN_ANOMALY":222.4884,"EPHEMERIS_TYPE":0,"CLASSIFICATION_TYPE":"U","NORAD_CAT_ID":52793,"ELEMENT_SET_NO":999,"REV_AT_EPOCH":20534,"BSTAR":0.00045554765,"MEAN_MOTION_DOT":5.429e-5,"MEAN_MOTION_DDOT":0},{"OBJECT_NAME":"STARLINK-5218","OBJECT_ID":"2023-021J","EPOCH":"2026-03-09T17:09:35.815968","MEAN_MOTION":14.98329838,"ECCENTRICITY":0.00032887,"INCLINATION":70.0001,"RA_OF_ASC_NODE":204.3244,"ARG_OF_PERICENTER":269.5064,"MEAN_ANOMALY":90.5718,"EPHEMERIS_TYPE":0,"CLASSIFICATION_TYPE":"U","NORAD_CAT_ID":55636,"ELEMENT_SET_NO":999,"REV_AT_EPOCH":16830,"BSTAR":4.3023057e-5,"MEAN_MOTION_DOT":4.2e-6,"MEAN_MOTION_DDOT":0}]
